0 COSMOS 2251 DEB
1 34398U 93036QP  13281.82940668  .00013489  00000-0  26499-2 0  1951
2 34398 073.9891 083.7959 0186033 221.4326 263.2982 14.52214586244154
0 COSMOS 2251 DEB
1 34398U 93036QP  13282.42947069  .00020310  00000-0  39808-2 0  1960
2 34398 073.9890 082.6607 0185913 220.1775 160.4151 14.52250723244240
0 COSMOS 2251 DEB
1 34398U 93036QP  13282.86164449  .00016808  00000-0  32961-2 0  1972
2 34398 073.9892 081.8434 0185956 219.2724 259.8603 14.52258456244304
0 COSMOS 2251 DEB
1 34398U 93036QP  13283.66525928  .00033591  00000-0  65832-2 0  1986
2 34398 073.9894 080.3261 0185596 217.5291 141.3280 14.52281902244429
0 COSMOS 2251 DEB
1 34398U 93036QP  13285.89425821  .00017147  00000-0  33575-2 0  1993
2 34398 073.9886 076.1067 0185704 212.8962 275.1594 14.52344820244749
0 COSMOS 2251 DEB
1 34398U 93036QP  13287.46478032  .00018466  00000-0  36113-2 0  2009
2 34398 073.9885 073.1354 0185641 209.6258 206.6170 14.52392074244974
0 COSMOS 2251 DEB
1 34398U 93036QP  13288.49929536  .00026658  00000-0  52007-2 0  2016
2 34398 073.9886 071.1780 0185525 207.4737 215.7443 14.52438216245126
0 COSMOS 2251 DEB
1 34398U 93036QP  13289.74997242  .00026855  00000-0  52363-2 0  2029
2 34398 073.9892 068.8116 0185292 204.8125 275.3939 14.52485106245304
0 COSMOS 2251 DEB
1 34398U 93036QP  13290.78265642  .00026388  00000-0  51414-2 0  2035
2 34398 073.9895 066.8576 0185205 202.6651 275.2902 14.52529885245457
0 COSMOS 2251 DEB
1 34398U 93036QP  13291.81644640  .00023558  00000-0  45890-2 0  2047
2 34398 073.9897 064.9015 0185100 200.5070 281.1431 14.52571686245608
0 COSMOS 2251 DEB
1 34398U 93036QP  13293.11219896  .00022002  00000-0  42836-2 0  2054
2 34398 073.9900 062.4495 0184918 197.7743 217.0918 14.52627321245794
0 COSMOS 2251 DEB
1 34398U 93036QP  13294.14681521  .00024834  00000-0  48294-2 0  2066
2 34398 073.9899 060.4916 0184778 195.6248 227.6141 14.52668210245942
0 COSMOS 2251 DEB
1 34398U 93036QP  13295.18151218  .00024913  00000-0  48417-2 0  2072
2 34398 073.9897 058.5333 0184636 193.4724 238.7177 14.52708774246098
